{"type": "FeatureCollection", "features": [ {"type": "Feature", "properties": {"norad_id": 57401, "name": "TIANMU-1 09", "group": "weather", "lat": 65.00118363977568, "lon": 8.669373619055827, "alt_km": 473.03467098007695, "timestamp": "2025-12-01T03:58:49.196417+00:00", "meta": {"OBJECT_NAME": "TIANMU-1 09", "OBJECT_ID": "2023-101C", "EPOCH": "2025-11-30T21:24:17.650944", "MEAN_MOTION": 15.27811418, "ECCENTRICITY": 0.0006657, "INCLINATION": 97.2847, "RA_OF_ASC_NODE": 24.3245, "ARG_OF_PERICENTER": 116.0351, "MEAN_ANOMALY": 244.1574, "EPHEMERIS_TYPE": 0, "CLASSIFICATION_TYPE": "U", "NORAD_CAT_ID": 57401, "ELEMENT_SET_NO": 999, "REV_AT_EPOCH": 13134, "BSTAR": 0.00032192, "MEAN_MOTION_DOT": 8.678e-05, "MEAN_MOTION_DDOT": 0, "GROUP": "weather"}, "tle": {"line1": "1 57401U 23101C   25334.89187096  .00008678  00000+0  32192-3 0  9997", "line2": "2 57401  97.2847  24.3245 0006657 116.0351 244.1574 15.27811418131344"}}, "geometry": {"type": "Point", "coordinates": [8.669373619055827, 65.00118363977568]}}, {"type": "Feature", "properties": {"norad_id": 57402, "name": "TIANMU-1 10", "group": "weather", "lat": -57.83295574960288, "lon": -166.31891900054868, "alt_km": 492.5523969376882, "timestamp": "2025-12-01T03:58:49.196427+00:00", "meta": {"OBJECT_NAME": "TIANMU-1 10", "OBJECT_ID": "2023-101D", "EPOCH": "2025-11-30T20:39:09.264960", "MEAN_MOTION": 15.27801073, "ECCENTRICITY": 0.0008403, "INCLINATION": 97.2926, "RA_OF_ASC_NODE": 25.131, "ARG_OF_PERICENTER": 117.7783, "MEAN_ANOMALY": 242.431, "EPHEMERIS_TYPE": 0, "CLASSIFICATION_TYPE": "U", "NORAD_CAT_ID": 57402, "ELEMENT_SET_NO": 999, "REV_AT_EPOCH": 13133, "BSTAR": 0.00029491, "MEAN_MOTION_DOT": 7.943e-05, "MEAN_MOTION_DDOT": 0, "GROUP": "weather"}, "tle": {"line1": "1 57402U 23101D   25334.86052390  .00007943  00000+0  29491-3 0  9995", "line2": "2 57402  97.2926  25.1310 0008403 117.7783 242.4310 15.27801073131337"}}, "geometry": {"type": "Point", "coordinates": [-166.31891900054868, -57.83295574960288]}}, {"type": "Feature", "properties": {"norad_id": 57490, "name": "FENGYUN 3F", "group": "weather", "lat": -46.97416054775017, "lon": 53.098305642445155, "alt_km": 832.8107614391001, "timestamp": "2025-12-01T03:58:49.196444+00:00", "meta": {"OBJECT_NAME": "FENGYUN 3F", "OBJECT_ID": "2023-111A", "EPOCH": "2025-11-30T19:44:54.349728", "MEAN_MOTION": 14.19888408, "ECCENTRICITY": 7.22e-05, "INCLINATION": 98.7098, "RA_OF_ASC_NODE": 43.3078, "ARG_OF_PERICENTER": 82.2398, "MEAN_ANOMALY": 277.8861, "EPHEMERIS_TYPE": 0, "CLASSIFICATION_TYPE": "U", "NORAD_CAT_ID": 57490, "ELEMENT_SET_NO": 999, "REV_AT_EPOCH": 12071, "BSTAR": 5.5491e-05, "MEAN_MOTION_DOT": 7.4e-07, "MEAN_MOTION_DDOT": 0, "GROUP": "weather"}, "tle": {"line1": "1 57490U 23111A   25334.82285127  .00000074  00000+0  55491-4 0  9993", "line2": "2 57490  98.7098  43.3078 0000722  82.2398 277.8861 14.19888408120717"}}, "geometry": {"type": "Point", "coordinates": [53.098305642445155, -46.97416054775017]}}, {"type": "Feature", "properties": {"norad_id": 58584, "name": "ARKTIKA-M 2", "group": "weather", "lat": 60.33007720125086, "lon": -66.28125932880023, "alt_km": 35249.47121848848, "timestamp": "2025-12-01T03:58:49.196539+00:00", "meta": {"OBJECT_NAME": "ARKTIKA-M 2", "OBJECT_ID": "2023-198A", "EPOCH": "2025-11-25T09:09:19.764864", "MEAN_MOTION": 2.00606686, "ECCENTRICITY": 0.68638015, "INCLINATION": 63.2269, "RA_OF_ASC_NODE": 176.763, "ARG_OF_PERICENTER": 268.1765, "MEAN_ANOMALY": 18.8388, "EPHEMERIS_TYPE": 0, "CLASSIFICATION_TYPE": "U", "NORAD_CAT_ID": 58584, "ELEMENT_SET_NO": 999, "REV_AT_EPOCH": 1423, "BSTAR": 0, "MEAN_MOTION_DOT": 2.01e-06, "MEAN_MOTION_DDOT": 0, "GROUP": "weather"}, "tle": {"line1": "1 58584U 23198A   25329.38147876  .00000201  00000+0  00000+0 0  9999", "line2": "2 58584  63.2269 176.7630 6863801 268.1765  18.8388  2.00606686 14237"}}, "geometry": {"type": "Point", "coordinates": [-66.28125932880023, 60.33007720125086]}}, {"type": "Feature", "properties": {"norad_id": 58645, "name": "TIANMU-1 11", "group": "weather", "lat": -20.976614940808425, "lon": 172.15312352568657, "alt_km": 503.671558544077, "timestamp": "2025-12-01T03:58:49.196559+00:00", "meta": {"OBJECT_NAME": "TIANMU-1 11", "OBJECT_ID": "2023-205A", "EPOCH": "2025-11-30T20:47:56.965920", "MEAN_MOTION": 15.2437533, "ECCENTRICITY": 0.0009151, "INCLINATION": 97.3622, "RA_OF_ASC_NODE": 354.7006, "ARG_OF_PERICENTER": 356.1904, "MEAN_ANOMALY": 3.9263, "EPHEMERIS_TYPE": 0, "CLASSIFICATION_TYPE": "U", "NORAD_CAT_ID": 58645, "ELEMENT_SET_NO": 999, "REV_AT_EPOCH": 10728, "BSTAR": 0.00028138, "MEAN_MOTION_DOT": 6.829e-05, "MEAN_MOTION_DDOT": 0, "GROUP": "weather"}, "tle": {"line1": "1 58645U 23205A   25334.86663155  .00006829  00000+0  28138-3 0  9996", "line2": "2 58645  97.3622 354.7006 0009151 356.1904   3.9263 15.24375330107282"}}, "geometry": {"type": "Point", "coordinates": [172.15312352568657, -20.976614940808425]}}, {"type": "Feature", "properties": {"norad_id": 58646, "name": "TIANMU-1 12", "group": "weather", "lat": 56.73266267909775, "lon": -16.560480410514728, "alt_km": 486.37332292207066, "timestamp": "2025-12-01T03:58:49.196569+00:00", "meta": {"OBJECT_NAME": "TIANMU-1 12", "OBJECT_ID": "2023-205B", "EPOCH": "2025-11-30T21:25:38.199072", "MEAN_MOTION": 15.24287, "ECCENTRICITY": 0.0006934, "INCLINATION": 97.3609, "RA_OF_ASC_NODE": 354.5356, "ARG_OF_PERICENTER": 342.3918, "MEAN_ANOMALY": 17.7078, "EPHEMERIS_TYPE": 0, "CLASSIFICATION_TYPE": "U", "NORAD_CAT_ID": 58646, "ELEMENT_SET_NO": 999, "REV_AT_EPOCH": 10727, "BSTAR": 0.00028778, "MEAN_MOTION_DOT": 6.964e-05, "MEAN_MOTION_DDOT": 0, "GROUP": "weather"}, "tle": {"line1": "1 58646U 23205B   25334.89280323  .00006964  00000+0  28778-3 0  9992", "line2": "2 58646  97.3609 354.5356 0006934 342.3918  17.7078 15.24287000107274"}}, "geometry": {"type": "Point", "coordinates": [-16.560480410514728, 56.73266267909775]}}, {"type": "Feature", "properties": {"norad_id": 58647, "name": "TIANMU-1 13", "group": "weather", "lat": -51.93183148463995, "lon": 165.4955455486728, "alt_km": 499.61571207042925, "timestamp": "2025-12-01T03:58:49.196579+00:00", "meta": {"OBJECT_NAME": "TIANMU-1 13", "OBJECT_ID": "2023-205C", "EPOCH": "2025-11-30T20:39:39.373632", "MEAN_MOTION": 15.24293398, "ECCENTRICITY": 0.0006593, "INCLINATION": 97.3637, "RA_OF_ASC_NODE": 354.7002, "ARG_OF_PERICENTER": 319.9657, "MEAN_ANOMALY": 40.1094, "EPHEMERIS_TYPE": 0, "CLASSIFICATION_TYPE": "U", "NORAD_CAT_ID": 58647, "ELEMENT_SET_NO": 999, "REV_AT_EPOCH": 10726, "BSTAR": 0.00029095, "MEAN_MOTION_DOT": 7.043e-05, "MEAN_MOTION_DDOT": 0, "GROUP": "weather"}, "tle": {"line1": "1 58647U 23205C   25334.86087238  .00007043  00000+0  29095-3 0  9992", "line2": "2 58647  97.3637 354.7002 0006593 319.9657  40.1094 15.24293398107261"}}, "geometry": {"type": "Point", "coordinates": [165.4955455486728, -51.93183148463995]}}, {"type": "Feature", "properties": {"norad_id": 58648, "name": "TIANMU-1 14", "group": "weather", "lat": -35.5142233496011, "lon": -0.34999401369041594, "alt_km": 494.13814772909427, "timestamp": "2025-12-01T03:58:49.196589+00:00", "meta": {"OBJECT_NAME": "TIANMU-1 14", "OBJECT_ID": "2023-205D", "EPOCH": "2025-11-30T20:15:34.145280", "MEAN_MOTION": 15.24277966, "ECCENTRICITY": 0.0007522, "INCLINATION": 97.3569, "RA_OF_ASC_NODE": 354.0436, "ARG_OF_PERICENTER": 324.0058, "MEAN_ANOMALY": 36.0672, "EPHEMERIS_TYPE": 0, "CLASSIFICATION_TYPE": "U", "NORAD_CAT_ID": 58648, "ELEMENT_SET_NO": 999, "REV_AT_EPOCH": 10726, "BSTAR": 0.00027471, "MEAN_MOTION_DOT": 6.644e-05, "MEAN_MOTION_DDOT": 0, "GROUP": "weather"}, "tle": {"line1": "1 58648U 23205D   25334.84414520  .00006644  00000+0  27471-3 0  9991", "line2": "2 58648  97.3569 354.0436 0007522 324.0058  36.0672 15.24277966107264"}}, "geometry": {"type": "Point", "coordinates": [-0.34999401369041594, -35.5142233496011]}}, {"type": "Feature", "properties": {"norad_id": 58660, "name": "TIANMU-1 19", "group": "weather", "lat": 79.27716900809494, "lon": 42.60233493618315, "alt_km": 478.0100452540828, "timestamp": "2025-12-01T03:58:49.196599+00:00", "meta": {"OBJECT_NAME": "TIANMU-1 19", "OBJECT_ID": "2023-208A", "EPOCH": "2025-11-30T19:45:38.119968", "MEAN_MOTION": 15.27511733, "ECCENTRICITY": 0.0004207, "INCLINATION": 97.4385, "RA_OF_ASC_NODE": 85.887, "ARG_OF_PERICENTER": 306.2008, "MEAN_ANOMALY": 53.8842, "EPHEMERIS_TYPE": 0, "CLASSIFICATION_TYPE": "U", "NORAD_CAT_ID": 58660, "ELEMENT_SET_NO": 999, "REV_AT_EPOCH": 10700, "BSTAR": 0.00037043, "MEAN_MOTION_DOT": 9.901e-05, "MEAN_MOTION_DDOT": 0, "GROUP": "weather"}, "tle": {"line1": "1 58660U 23208A   25334.82335787  .00009901  00000+0  37043-3 0  9998", "line2": "2 58660  97.4385  85.8870 0004207 306.2008  53.8842 15.27511733107004"}}, "geometry": {"type": "Point", "coordinates": [42.60233493618315, 79.27716900809494]}}, {"type": "Feature", "properties": {"norad_id": 58661, "name": "TIANMU-1 20", "group": "weather", "lat": 71.51373893544805, "lon": -70.3522343298424, "alt_km": 476.8196949507428, "timestamp": "2025-12-01T03:58:49.196609+00:00", "meta": {"OBJECT_NAME": "TIANMU-1 20", "OBJECT_ID": "2023-208B", "EPOCH": "2025-11-30T19:39:33.523200", "MEAN_MOTION": 15.28705051, "ECCENTRICITY": 0.0006609, "INCLINATION": 97.4322, "RA_OF_ASC_NODE": 86.3188, "ARG_OF_PERICENTER": 315.2621, "MEAN_ANOMALY": 44.8085, "EPHEMERIS_TYPE": 0, "CLASSIFICATION_TYPE": "U", "NORAD_CAT_ID": 58661, "ELEMENT_SET_NO": 999, "REV_AT_EPOCH": 10707, "BSTAR": 0.00036385, "MEAN_MOTION_DOT": 0.00010089, "MEAN_MOTION_DDOT": 0, "GROUP": "weather"}, "tle": {"line1": "1 58661U 23208B   25334.81913800  .00010089  00000+0  36385-3 0  9993", "line2": "2 58661  97.4322  86.3188 0006609 315.2621  44.8085 15.28705051107078"}}, "geometry": {"type": "Point", "coordinates": [-70.3522343298424, 71.51373893544805]}}]}